STARLINK-6297           
1 57352U 23099AA  25210.73509176  .00001796  00000+0  14793-3 0  9992
2 57352  43.0045   7.8270 0001440 271.3343  88.7334 15.02547121112720
STARLINK-6324           
1 57353U 23099AB  25210.46437726  .00000842  00000+0  77415-4 0  9996
2 57353  43.0050  21.4013 0001309 268.8477  91.2215 15.02539407112542
STARLINK-6293           
1 57354U 23099AC  25210.12792736 -.00000376  00000+0 -12745-4 0  9994
2 57354  43.0044  11.0086 0001153 266.8654  93.2056 15.02536632112635
STARLINK-6276           
1 57355U 23099AD  25210.47252288  .00000054  00000+0  19060-4 0  9994
2 57355  43.0052   9.2985 0001611 269.9870  90.0788 15.02533303112689
STARLINK-6355           
1 57356U 23099AE  25210.72511608  .00000015  00000+0  16151-4 0  9992
2 57356  43.0047   7.7483 0001193 270.8491  89.2214 15.02534757112728
STARLINK-5600           
1 57357U 23099AF  25210.73289470  .00002287  00000+0  18429-3 0  9995
2 57357  43.0045   7.8097 0001126 263.5343  96.5371 15.02541877112726
STARLINK-6299           
1 57358U 23099AG  25210.71956768  .00000127  00000+0  24446-4 0  9993
2 57358  43.0055   7.7101 0001410 262.2065  97.8617 15.02533252113463
STARLINK-6347           
1 57359U 23099AH  25210.73621615  .00000076  00000+0  20716-4 0  9995
2 57359  43.0047   7.8347 0001432 269.2923  90.7756 15.02534121112722
STARLINK-6348           
1 57360U 23099AJ  25210.77938318  .00000590  00000+0  58775-4 0  9999
2 57360  43.0052   7.2987 0001385 263.1912  96.8773 15.02534305112733
STARLINK-6340           
1 57361U 23099AK  25210.72178528  .00000653  00000+0  63416-4 0  9992
2 57361  43.0048   7.7273 0001165 268.3099  91.7610 15.02535418112720
STARLINK-6343           
1 57362U 23099AL  25210.77605568  .00000286  00000+0  36244-4 0  9998
2 57362  43.0052   7.2695 0001248 270.5078  89.5621 15.02535874113479
STARLINK-6356           
1 57363U 23099AM  25210.71623193  .00000264  00000+0  34573-4 0  9996
2 57363  43.0038   7.6813 0000914 267.2396  92.8342 15.02541523112727
STARLINK-6338           
1 57364U 23099AN  25210.77494639 -.00000118  00000+0  63108-5 0  9990
2 57364  43.0042   7.2623 0001179 271.4093  88.6614 15.02533317112731
STARLINK-5007           
1 57365U 23099AP  25210.76495257  .00000552  00000+0  55956-4 0  9999
2 57365  43.0050   7.1813 0001125 265.8744  94.1970 15.02538488112733
STARLINK-6174           
1 57366U 23099AQ  25210.76828115  .00000401  00000+0  44746-4 0  9991
2 57366  43.0044   7.2110 0001171 269.2785  90.7924 15.02539655112730
STARLINK-6215           
1 57367U 23099AR  25210.69540436 -.00000439  00000+0 -17401-4 0  9992
2 57367  43.0042 354.4944 0001232 265.7680  94.3022 15.02532429113624
STARLINK-6218           
1 57368U 23099AS  25210.76273688  .00000104  00000+0  22758-4 0  9991
2 57368  43.0046   7.1742 0001642 266.2790  93.7864 15.02533456112739
