[{"OBJECT_NAME":"STARLINK-6297","OBJECT_ID":"2023-099AA","EPOCH":"2025-07-29T17:38:31.928064","MEAN_MOTION":15.02547121,"ECCENTRICITY":0.000144,"INCLINATION":43.0045,"RA_OF_ASC_NODE":7.827,"ARG_OF_PERICENTER":271.3343,"MEAN_ANOMALY":88.7334,"EPHEMERIS_TYPE":0,"CLASSIFICATION_TYPE":"U","NORAD_CAT_ID":57352,"ELEMENT_SET_NO":999,"REV_AT_EPOCH":11272,"BSTAR":0.00014793,"MEAN_MOTION_DOT":1.796e-5,"MEAN_MOTION_DDOT":0},{"OBJECT_NAME":"STARLINK-6324","OBJECT_ID":"2023-099AB","EPOCH":"2025-07-29T11:08:42.195264","MEAN_MOTION":15.02539407,"ECCENTRICITY":0.0001309,"INCLINATION":43.005,"RA_OF_ASC_NODE":21.4013,"ARG_OF_PERICENTER":268.8477,"MEAN_ANOMALY":91.2215,"EPHEMERIS_TYPE":0,"CLASSIFICATION_TYPE":"U","NORAD_CAT_ID":57353,"ELEMENT_SET_NO":999,"REV_AT_EPOCH":11254,"BSTAR":7.7415e-5,"MEAN_MOTION_DOT":8.42e-6,"MEAN_MOTION_DDOT":0},{"OBJECT_NAME":"STARLINK-6293","OBJECT_ID":"2023-099AC","EPOCH":"2025-07-29T03:04:12.923904","MEAN_MOTION":15.02536632,"ECCENTRICITY":0.0001153,"INCLINATION":43.0044,"RA_OF_ASC_NODE":11.0086,"ARG_OF_PERICENTER":266.8654,"MEAN_ANOMALY":93.2056,"EPHEMERIS_TYPE":0,"CLASSIFICATION_TYPE":"U","NORAD_CAT_ID":57354,"ELEMENT_SET_NO":999,"REV_AT_EPOCH":11263,"BSTAR":-1.2745e-5,"MEAN_MOTION_DOT":-3.76e-6,"MEAN_MOTION_DDOT":0},{"OBJECT_NAME":"STARLINK-6276","OBJECT_ID":"2023-099AD","EPOCH":"2025-07-29T11:20:25.976832","MEAN_MOTION":15.02533303,"ECCENTRICITY":0.0001611,"INCLINATION":43.0052,"RA_OF_ASC_NODE":9.2985,"ARG_OF_PERICENTER":269.987,"MEAN_ANOMALY":90.0788,"EPHEMERIS_TYPE":0,"CLASSIFICATION_TYPE":"U","NORAD_CAT_ID":57355,"ELEMENT_SET_NO":999,"REV_AT_EPOCH":11268,"BSTAR":1.906e-5,"MEAN_MOTION_DOT":5.4e-7,"MEAN_MOTION_DDOT":0},{"OBJECT_NAME":"STARLINK-6355","OBJECT_ID":"2023-099AE","EPOCH":"2025-07-29T17:24:10.029312","MEAN_MOTION":15.02534757,"ECCENTRICITY":0.0001193,"INCLINATION":43.0047,"RA_OF_ASC_NODE":7.7483,"ARG_OF_PERICENTER":270.8491,"MEAN_ANOMALY":89.2214,"EPHEMERIS_TYPE":0,"CLASSIFICATION_TYPE":"U","NORAD_CAT_ID":57356,"ELEMENT_SET_NO":999,"REV_AT_EPOCH":11272,"BSTAR":1.6151e-5,"MEAN_MOTION_DOT":1.5e-7,"MEAN_MOTION_DDOT":0},{"OBJECT_NAME":"STARLINK-5600","OBJECT_ID":"2023-099AF","EPOCH":"2025-07-29T17:35:22.102080","MEAN_MOTION":15.02541877,"ECCENTRICITY":0.0001126,"INCLINATION":43.0045,"RA_OF_ASC_NODE":7.8097,"ARG_OF_PERICENTER":263.5343,"MEAN_ANOMALY":96.5371,"EPHEMERIS_TYPE":0,"CLASSIFICATION_TYPE":"U","NORAD_CAT_ID":57357,"ELEMENT_SET_NO":999,"REV_AT_EPOCH":11272,"BSTAR":0.00018429,"MEAN_MOTION_DOT":2.287e-5,"MEAN_MOTION_DDOT":0},{"OBJECT_NAME":"STARLINK-6299","OBJECT_ID":"2023-099AG","EPOCH":"2025-07-29T17:16:10.647552","MEAN_MOTION":15.02533252,"ECCENTRICITY":0.000141,"INCLINATION":43.0055,"RA_OF_ASC_NODE":7.7101,"ARG_OF_PERICENTER":262.2065,"MEAN_ANOMALY":97.8617,"EPHEMERIS_TYPE":0,"CLASSIFICATION_TYPE":"U","NORAD_CAT_ID":57358,"ELEMENT_SET_NO":999,"REV_AT_EPOCH":11346,"BSTAR":2.4446e-5,"MEAN_MOTION_DOT":1.27e-6,"MEAN_MOTION_DDOT":0},{"OBJECT_NAME":"STARLINK-6347","OBJECT_ID":"2023-099AH","EPOCH":"2025-07-29T17:40:09.075360","MEAN_MOTION":15.02534121,"ECCENTRICITY":0.0001432,"INCLINATION":43.0047,"RA_OF_ASC_NODE":7.8347,"ARG_OF_PERICENTER":269.2923,"MEAN_ANOMALY":90.7756,"EPHEMERIS_TYPE":0,"CLASSIFICATION_TYPE":"U","NORAD_CAT_ID":57359,"ELEMENT_SET_NO":999,"REV_AT_EPOCH":11272,"BSTAR":2.0716e-5,"MEAN_MOTION_DOT":7.6e-7,"MEAN_MOTION_DDOT":0},{"OBJECT_NAME":"STARLINK-6348","OBJECT_ID":"2023-099AJ","EPOCH":"2025-07-29T18:42:18.706752","MEAN_MOTION":15.02534305,"ECCENTRICITY":0.0001385,"INCLINATION":43.0052,"RA_OF_ASC_NODE":7.2987,"ARG_OF_PERICENTER":263.1912,"MEAN_ANOMALY":96.8773,"EPHEMERIS_TYPE":0,"CLASSIFICATION_TYPE":"U","NORAD_CAT_ID":57360,"ELEMENT_SET_NO":999,"REV_AT_EPOCH":11273,"BSTAR":5.8775e-5,"MEAN_MOTION_DOT":5.9e-6,"MEAN_MOTION_DDOT":0},{"OBJECT_NAME":"STARLINK-6340","OBJECT_ID":"2023-099AK","EPOCH":"2025-07-29T17:19:22.248192","MEAN_MOTION":15.02535418,"ECCENTRICITY":0.0001165,"INCLINATION":43.0048,"RA_OF_ASC_NODE":7.7273,"ARG_OF_PERICENTER":268.3099,"MEAN_ANOMALY":91.761,"EPHEMERIS_TYPE":0,"CLASSIFICATION_TYPE":"U","NORAD_CAT_ID":57361,"ELEMENT_SET_NO":999,"REV_AT_EPOCH":11272,"BSTAR":6.3416e-5,"MEAN_MOTION_DOT":6.53e-6,"MEAN_MOTION_DDOT":0},{"OBJECT_NAME":"STARLINK-6343","OBJECT_ID":"2023-099AL","EPOCH":"2025-07-29T18:37:31.210752","MEAN_MOTION":15.02535874,"ECCENTRICITY":0.0001248,"INCLINATION":43.0052,"RA_OF_ASC_NODE":7.2695,"ARG_OF_PERICENTER":270.5078,"MEAN_ANOMALY":89.5621,"EPHEMERIS_TYPE":0,"CLASSIFICATION_TYPE":"U","NORAD_CAT_ID":57362,"ELEMENT_SET_NO":999,"REV_AT_EPOCH":11347,"BSTAR":3.6244e-5,"MEAN_MOTION_DOT":2.86e-6,"MEAN_MOTION_DDOT":0},{"OBJECT_NAME":"STARLINK-6356","OBJECT_ID":"2023-099AM","EPOCH":"2025-07-29T17:11:22.438752","MEAN_MOTION":15.02541523,"ECCENTRICITY":9.14e-5,"INCLINATION":43.0038,"RA_OF_ASC_NODE":7.6813,"ARG_OF_PERICENTER":267.2396,"MEAN_ANOMALY":92.8342,"EPHEMERIS_TYPE":0,"CLASSIFICATION_TYPE":"U","NORAD_CAT_ID":57363,"ELEMENT_SET_NO":999,"REV_AT_EPOCH":11272,"BSTAR":3.4573e-5,"MEAN_MOTION_DOT":2.64e-6,"MEAN_MOTION_DDOT":0},{"OBJECT_NAME":"STARLINK-6338","OBJECT_ID":"2023-099AN","EPOCH":"2025-07-29T18:35:55.368096","MEAN_MOTION":15.02533317,"ECCENTRICITY":0.0001179,"INCLINATION":43.0042,"RA_OF_ASC_NODE":7.2623,"ARG_OF_PERICENTER":271.4093,"MEAN_ANOMALY":88.6614,"EPHEMERIS_TYPE":0,"CLASSIFICATION_TYPE":"U","NORAD_CAT_ID":57364,"ELEMENT_SET_NO":999,"REV_AT_EPOCH":11273,"BSTAR":6.3108e-6,"MEAN_MOTION_DOT":-1.18e-6,"MEAN_MOTION_DDOT":0},{"OBJECT_NAME":"STARLINK-5007","OBJECT_ID":"2023-099AP","EPOCH":"2025-07-29T18:21:31.902048","MEAN_MOTION":15.02538488,"ECCENTRICITY":0.0001125,"INCLINATION":43.005,"RA_OF_ASC_NODE":7.1813,"ARG_OF_PERICENTER":265.8744,"MEAN_ANOMALY":94.197,"EPHEMERIS_TYPE":0,"CLASSIFICATION_TYPE":"U","NORAD_CAT_ID":57365,"ELEMENT_SET_NO":999,"REV_AT_EPOCH":11273,"BSTAR":5.5956e-5,"MEAN_MOTION_DOT":5.52e-6,"MEAN_MOTION_DDOT":0},{"OBJECT_NAME":"STARLINK-6174","OBJECT_ID":"2023-099AQ","EPOCH":"2025-07-29T18:26:19.491360","MEAN_MOTION":15.02539655,"ECCENTRICITY":0.0001171,"INCLINATION":43.0044,"RA_OF_ASC_NODE":7.211,"ARG_OF_PERICENTER":269.2785,"MEAN_ANOMALY":90.7924,"EPHEMERIS_TYPE":0,"CLASSIFICATION_TYPE":"U","NORAD_CAT_ID":57366,"ELEMENT_SET_NO":999,"REV_AT_EPOCH":11273,"BSTAR":4.4746e-5,"MEAN_MOTION_DOT":4.01e-6,"MEAN_MOTION_DDOT":0},{"OBJECT_NAME":"STARLINK-6215","OBJECT_ID":"2023-099AR","EPOCH":"2025-07-29T16:41:22.936704","MEAN_MOTION":15.02532429,"ECCENTRICITY":0.0001232,"INCLINATION":43.0042,"RA_OF_ASC_NODE":354.4944,"ARG_OF_PERICENTER":265.768,"MEAN_ANOMALY":94.3022,"EPHEMERIS_TYPE":0,"CLASSIFICATION_TYPE":"U","NORAD_CAT_ID":57367,"ELEMENT_SET_NO":999,"REV_AT_EPOCH":11362,"BSTAR":-1.7401e-5,"MEAN_MOTION_DOT":-4.39e-6,"MEAN_MOTION_DDOT":0},{"OBJECT_NAME":"STARLINK-6218","OBJECT_ID":"2023-099AS","EPOCH":"2025-07-29T18:18:20.466432","MEAN_MOTION":15.02533456,"ECCENTRICITY":0.0001642,"INCLINATION":43.0046,"RA_OF_ASC_NODE":7.1742,"ARG_OF_PERICENTER":266.279,"MEAN_ANOMALY":93.7864,"EPHEMERIS_TYPE":0,"CLASSIFICATION_TYPE":"U","NORAD_CAT_ID":57368,"ELEMENT_SET_NO":999,"REV_AT_EPOCH":11273,"BSTAR":2.2758e-5,"MEAN_MOTION_DOT":1.04e-6,"MEAN_MOTION_DDOT":0}]
